{
"type": "FeatureCollection",
"name": "CDM Airspace Data",
"crs": { "type": "name", "properties": { "name": "urn:ogc:def:crs:OGC:1.3:CRS84" } },
"features": [
{"type": "Feature", "properties": {"id": "BI-OCEANIC-EAST/1", "minFL": 55, "maxFL": 84}, "geometry": {"type": "MultiPolygon", "coordinates": [[[[-11.882222, 63.823333], [-11.0, 64.0], [-11.0, 66.75], [-10.0, 66.75], [0.0, 65.75], [0.0, 63.25], [0.0, 63.0], [-1.443611, 63.0], [-4.0, 61.0], [-5.0, 61.0], [-5.5, 61.0], [-7.0, 61.0], [-10.0, 60.666667], [-10.0, 61.0], [-11.882222, 63.823333]]]]}},
{"type": "Feature", "properties": {"id": "BI-OCEANIC-EAST/2", "minFL": 85, "maxFL": 344}, "geometry": {"type": "MultiPolygon", "coordinates": [[[[-11.882222, 63.823333], [-11.0, 64.0], [-11.0, 66.75], [-10.0, 66.75], [0.0, 65.75], [0.0, 63.25], [0.0, 63.0], [0.0, 61.528611], [0.0, 61.0], [-4.0, 61.0], [-5.0, 61.0], [-5.5, 61.0], [-7.0, 61.0], [-10.0, 60.666667], [-10.0, 61.0], [-11.882222, 63.823333]]]]}},
{"type": "Feature", "properties": {"id": "BI-OCEANIC-EAST/3", "minFL": 245, "maxFL": 344}, "geometry": {"type": "MultiPolygon", "coordinates": [[[[-11.882222, 63.823333], [-11.0, 64.0], [-11.0, 66.75], [-15.176667, 66.75], [-14.0, 66.0], [-11.882222, 63.823333]]]]}},
{"type": "Feature", "properties": {"id": "BI-OCEANIC-EAST/4", "minFL": 345, "maxFL": 354}, "geometry": {"type": "MultiPolygon", "coordinates": [[[[-7.0, 61.0], [-5.5, 61.0], [-5.0, 61.0], [-4.0, 61.0], [0.0, 61.0], [0.0, 61.528611], [0.0, 63.0], [0.0, 63.25], [0.0, 65.75], [-10.0, 66.75], [-11.0, 66.75], [-15.176667, 66.75], [-14.0, 66.0], [-11.882222, 63.823333], [-10.0, 61.0], [-10.0, 60.666667], [-7.0, 61.0]]]]}},
{"type": "Feature", "properties": {"id": "BI-OCEANIC-EAST/5", "minFL": 355, "maxFL": 364}, "geometry": {"type": "MultiPolygon", "coordinates": [[[[-7.0, 61.0], [-5.5, 61.0], [-5.0, 61.0], [-4.0, 61.0], [0.0, 61.0], [0.0, 61.528611], [0.0, 63.0], [0.0, 63.25], [0.0, 65.75], [-10.0, 66.75], [-11.0, 66.75], [-15.176667, 66.75], [-14.0, 66.0], [-11.882222, 63.823333], [-10.0, 61.0], [-10.0, 60.666667], [-7.0, 61.0]]]]}},
{"type": "Feature", "properties": {"id": "BI-OCEANIC-EAST/6", "minFL": 365, "maxFL": 659}, "geometry": {"type": "MultiPolygon", "coordinates": [[[[-7.0, 61.0], [-5.5, 61.0], [-5.0, 61.0], [-4.0, 61.0], [0.0, 61.0], [0.0, 61.528611], [0.0, 63.0], [0.0, 63.25], [0.0, 65.75], [-10.0, 66.75], [-11.0, 66.75], [-15.176667, 66.75], [-14.0, 66.0], [-11.882222, 63.823333], [-10.0, 61.0], [-10.0, 60.666667], [-7.0, 61.0]]]]}},
{"type": "Feature", "properties": {"id": "BI-OCEANIC-NORTH/1", "minFL": 55, "maxFL": 194}, "geometry": {"type": "MultiPolygon", "coordinates": [[[[0.0, 73.0], [0.0, 69.333333], [0.0, 65.75], [-10.0, 66.75], [-11.0, 66.75], [-11.0, 67.5], [-26.0, 67.5], [-26.0, 66.75], [-30.0, 66.75], [-20.0, 70.0], [-20.0, 73.0], [0.0, 73.0]]]]}},
{"type": "Feature", "properties": {"id": "BI-OCEANIC-NORTH/2", "minFL": 195, "maxFL": 244}, "geometry": {"type": "MultiPolygon", "coordinates": [[[[-30.0, 66.75], [-26.0, 66.75], [-26.0, 67.5], [-11.0, 67.5], [-11.0, 66.75], [-10.0, 66.75], [0.0, 65.75], [0.0, 69.333333], [0.0, 73.0], [0.0, 82.0], [30.0, 82.0], [30.0, 83.0], [30.0, 85.0], [30.0, 88.0], [0.0, 90.0], [-59.852222, 88.763056], [-60.013333, 87.528333], [-59.998333, 86.286111], [-59.989167, 85.041944], [-59.997222, 83.798056], [-59.994722, 82.548889], [-60.0, 82.0], [-65.207222, 81.015833], [-69.354167, 79.978333], [-72.723611, 78.896389], [-74.265278, 78.306111], [-75.0, 78.0], [-75.476389, 77.122778], [-76.0, 76.0], [-73.050278, 74.997778], [-70.456667, 73.957778], [-68.171389, 72.895556], [-66.32, 71.866667], [-66.158056, 71.809444], [-64.287222, 70.643889], [-63.690833, 70.25], [-50.0, 70.25], [-40.0, 68.25], [-30.0, 66.75]]]]}},
{"type": "Feature", "properties": {"id": "BI-OCEANIC-NORTH/3", "minFL": 245, "maxFL": 659}, "geometry": {"type": "MultiPolygon", "coordinates": [[[[-30.0, 66.75], [-26.0, 66.75], [-22.971389, 66.75], [-15.176667, 66.75], [-11.0, 66.75], [-10.0, 66.75], [0.0, 65.75], [0.0, 69.333333], [0.0, 73.0], [0.0, 82.0], [30.0, 82.0], [30.0, 83.0], [30.0, 85.0], [30.0, 88.0], [0.0, 90.0], [-59.852222, 88.763056], [-60.013333, 87.528333], [-59.998333, 86.286111], [-59.989167, 85.041944], [-59.997222, 83.798056], [-59.994722, 82.548889], [-60.0, 82.0], [-65.207222, 81.015833], [-69.354167, 79.978333], [-72.723611, 78.896389], [-74.265278, 78.306111], [-75.0, 78.0], [-75.476389, 77.122778], [-76.0, 76.0], [-73.050278, 74.997778], [-70.456667, 73.957778], [-68.171389, 72.895556], [-66.32, 71.866667], [-66.158056, 71.809444], [-64.287222, 70.643889], [-63.690833, 70.25], [-50.0, 70.25], [-40.0, 68.25], [-30.0, 66.75]]]]}},
{"type": "Feature", "properties": {"id": "BI-OCEANIC-SOUTH/1", "minFL": 55, "maxFL": 284}, "geometry": {"type": "MultiPolygon", "coordinates": [[[[-30.0, 66.75], [-26.0, 66.75], [-26.0, 65.355278], [-26.006944, 65.2825], [-26.306944, 65.112778], [-26.758889, 64.821111], [-26.908889, 64.659444], [-27.026111, 64.492778], [-27.11, 64.322222], [-27.159444, 64.149167], [-27.174444, 63.974722], [-27.154722, 63.800556], [-27.100278, 63.627778], [-27.011944, 63.4575], [-26.89, 63.291389], [-26.735556, 63.130556], [-26.549722, 62.976389], [-26.333889, 62.829722], [-26.09, 62.691944], [-25.819444, 62.564167], [-25.524444, 62.446944], [-25.2075, 62.341667], [-24.870556, 62.248889], [-24.516667, 62.169167], [-24.148056, 62.103333], [-23.768056, 62.051944], [-23.379167, 62.015], [-22.984444, 61.993333], [-22.586944, 61.986944], [-22.189444, 61.995556], [-21.795278, 62.019444], [-21.4075, 62.058056], [-21.028889, 62.111667], [-20.662222, 62.179444], [-20.310556, 62.260833], [-19.976111, 62.355556], [-19.661944, 62.4625], [-19.370278, 62.581111], [-19.103333, 62.710556], [-18.863056, 62.849444], [-18.553611, 63.0], [-16.0, 63.0], [-11.882222, 63.823333], [-10.0, 61.0], [-30.0, 61.0], [-30.0, 66.75]]]]}},
{"type": "Feature", "properties": {"id": "BI-OCEANIC-SOUTH/2", "minFL": 245, "maxFL": 284}, "geometry": {"type": "MultiPolygon", "coordinates": [[[[-22.971389, 66.75], [-15.176667, 66.75], [-14.0, 66.0], [-11.882222, 63.823333], [-16.0, 63.0], [-18.553611, 63.0], [-18.863056, 62.849444], [-19.103333, 62.710556], [-19.370278, 62.581111], [-19.661944, 62.4625], [-19.976111, 62.355556], [-20.310556, 62.260833], [-20.662222, 62.179444], [-21.028889, 62.111667], [-21.4075, 62.058056], [-21.795278, 62.019444], [-22.189444, 61.995556], [-22.586944, 61.986944], [-22.984444, 61.993333], [-23.379167, 62.015], [-23.768056, 62.051944], [-24.148056, 62.103333], [-24.516667, 62.169167], [-24.870556, 62.248889], [-25.2075, 62.341667], [-25.524444, 62.446944], [-25.819444, 62.564167], [-26.09, 62.691944], [-26.333889, 62.829722], [-26.549722, 62.976389], [-26.735556, 63.130556], [-26.89, 63.291389], [-27.011944, 63.4575], [-27.100278, 63.627778], [-27.154722, 63.800556], [-27.174444, 63.974722], [-27.159444, 64.149167], [-27.11, 64.322222], [-27.026111, 64.492778], [-26.908889, 64.659444], [-26.758889, 64.821111], [-26.306944, 65.112778], [-26.006944, 65.2825], [-26.0, 65.355278], [-26.0, 66.75], [-22.971389, 66.75]]]]}},
{"type": "Feature", "properties": {"id": "BI-OCEANIC-SOUTH/3", "minFL": 285, "maxFL": 344}, "geometry": {"type": "MultiPolygon", "coordinates": [[[[-22.971389, 66.75], [-15.176667, 66.75], [-14.0, 66.0], [-11.882222, 63.823333], [-10.0, 61.0], [-30.0, 61.0], [-30.0, 66.75], [-26.0, 66.75], [-22.971389, 66.75]]]]}},
{"type": "Feature", "properties": {"id": "BI-OCEANIC-SOUTH/4", "minFL": 345, "maxFL": 354}, "geometry": {"type": "MultiPolygon", "coordinates": [[[[-30.0, 66.75], [-26.0, 66.75], [-22.971389, 66.75], [-15.176667, 66.75], [-14.0, 66.0], [-11.882222, 63.823333], [-10.0, 61.0], [-30.0, 61.0], [-30.0, 66.75]]]]}},
{"type": "Feature", "properties": {"id": "BI-OCEANIC-SOUTH/5", "minFL": 355, "maxFL": 364}, "geometry": {"type": "MultiPolygon", "coordinates": [[[[-30.0, 66.75], [-26.0, 66.75], [-22.971389, 66.75], [-15.176667, 66.75], [-14.0, 66.0], [-11.882222, 63.823333], [-10.0, 61.0], [-30.0, 61.0], [-30.0, 66.75]]]]}},
{"type": "Feature", "properties": {"id": "BI-OCEANIC-SOUTH/6", "minFL": 365, "maxFL": 659}, "geometry": {"type": "MultiPolygon", "coordinates": [[[[-30.0, 66.75], [-26.0, 66.75], [-22.971389, 66.75], [-15.176667, 66.75], [-14.0, 66.0], [-11.882222, 63.823333], [-10.0, 61.0], [-30.0, 61.0], [-30.0, 66.75]]]]}},
{"type": "Feature", "properties": {"id": "BI-OCEANIC-WEST/1", "minFL": 55, "maxFL": 194}, "geometry": {"type": "MultiPolygon", "coordinates": [[[[-39.0, 63.5], [-30.0, 66.75], [-30.0, 61.0], [-39.0, 63.5]]]]}},
{"type": "Feature", "properties": {"id": "BI-OCEANIC-WEST/2", "minFL": 195, "maxFL": 344}, "geometry": {"type": "MultiPolygon", "coordinates": [[[[-55.833333, 63.5], [-57.75, 65.0], [-58.391944, 65.704722], [-58.7575, 66.084722], [-59.943611, 67.240833], [-61.233611, 68.39], [-62.68, 69.523056], [-63.690833, 70.25], [-50.0, 70.25], [-40.0, 68.25], [-30.0, 66.75], [-30.0, 61.0], [-39.0, 63.5], [-55.0, 63.5], [-55.833333, 63.5]]]]}},
{"type": "Feature", "properties": {"id": "BI-OCEANIC-WEST/3", "minFL": 345, "maxFL": 354}, "geometry": {"type": "MultiPolygon", "coordinates": [[[[-55.833333, 63.5], [-57.75, 65.0], [-58.391944, 65.704722], [-58.7575, 66.084722], [-59.943611, 67.240833], [-61.233611, 68.39], [-62.68, 69.523056], [-63.690833, 70.25], [-50.0, 70.25], [-40.0, 68.25], [-30.0, 66.75], [-30.0, 61.0], [-39.0, 63.5], [-55.0, 63.5], [-55.833333, 63.5]]]]}},
{"type": "Feature", "properties": {"id": "BI-OCEANIC-WEST/4", "minFL": 355, "maxFL": 364}, "geometry": {"type": "MultiPolygon", "coordinates": [[[[-55.833333, 63.5], [-57.75, 65.0], [-58.391944, 65.704722], [-58.7575, 66.084722], [-59.943611, 67.240833], [-61.233611, 68.39], [-62.68, 69.523056], [-63.690833, 70.25], [-50.0, 70.25], [-40.0, 68.25], [-30.0, 66.75], [-30.0, 61.0], [-39.0, 63.5], [-55.0, 63.5], [-55.833333, 63.5]]]]}},
{"type": "Feature", "properties": {"id": "BI-OCEANIC-WEST/5", "minFL": 365, "maxFL": 659}, "geometry": {"type": "MultiPolygon", "coordinates": [[[[-55.833333, 63.5], [-57.75, 65.0], [-58.391944, 65.704722], [-58.7575, 66.084722], [-59.943611, 67.240833], [-61.233611, 68.39], [-62.68, 69.523056], [-63.690833, 70.25], [-50.0, 70.25], [-40.0, 68.25], [-30.0, 66.75], [-30.0, 61.0], [-39.0, 63.5], [-55.0, 63.5], [-55.833333, 63.5]]]]}},
{"type": "Feature", "properties": {"id": "BI-DOMESTIC-EAST", "minFL": 30, "maxFL": 244}, "geometry": {"type": "MultiPolygon", "coordinates": [[[[-11.882222, 63.823333], [-11.0, 64.0], [-11.0, 66.75], [-15.176667, 66.75], [-14.0, 66.0], [-11.882222, 63.823333]]]]}},
{"type": "Feature", "properties": {"id": "BI-DOMESTIC-NORTH", "minFL": 30, "maxFL": 244}, "geometry": {"type": "MultiPolygon", "coordinates": [[[[-11.0, 66.75], [-26.0, 66.75], [-26.0, 67.5], [-11.0, 67.5], [-11.0, 66.75]]]]}},
{"type": "Feature", "properties": {"id": "BI-DOMESTIC-SOUTH", "minFL": 30, "maxFL": 244}, "geometry": {"type": "MultiPolygon", "coordinates": [[[[-22.971389, 66.75], [-22.966667, 64.633333], [-23.083889, 64.619722], [-23.304167, 64.578611], [-23.5075, 64.523056], [-23.688611, 64.453889], [-23.843333, 64.373056], [-23.968056, 64.282778], [-24.059167, 64.185556], [-24.114722, 64.083333], [-24.133611, 63.978889], [-24.114722, 63.875], [-24.059167, 63.773889], [-23.968056, 63.678056], [-23.843333, 63.59], [-23.688611, 63.511944], [-23.5075, 63.445], [-23.304167, 63.391667], [-23.083889, 63.3525], [-22.851944, 63.328611], [-22.614444, 63.320556], [-22.376667, 63.328611], [-22.144722, 63.3525], [-21.924444, 63.391667], [-21.721111, 63.445], [-21.54, 63.511944], [-21.385278, 63.59], [-21.260556, 63.678056], [-21.231667, 63.723611], [-18.553611, 63.0], [-18.863056, 62.849444], [-19.103333, 62.710556], [-19.370278, 62.581111], [-19.661944, 62.4625], [-19.976111, 62.355556], [-20.310556, 62.260833], [-20.662222, 62.179444], [-21.028889, 62.111667], [-21.4075, 62.058056], [-21.795278, 62.019444], [-22.189444, 61.995556], [-22.586944, 61.986944], [-22.984444, 61.993333], [-23.379167, 62.015], [-23.768056, 62.051944], [-24.148056, 62.103333], [-24.516667, 62.169167], [-24.870556, 62.248889], [-25.2075, 62.341667], [-25.524444, 62.446944], [-25.819444, 62.564167], [-26.09, 62.691944], [-26.333889, 62.829722], [-26.549722, 62.976389], [-26.735556, 63.130556], [-26.89, 63.291389], [-27.011944, 63.4575], [-27.100278, 63.627778], [-27.154722, 63.800556], [-27.174444, 63.974722], [-27.159444, 64.149167], [-27.11, 64.322222], [-27.026111, 64.492778], [-26.908889, 64.659444], [-26.758889, 64.821111], [-26.306944, 65.112778], [-26.006944, 65.2825], [-26.0, 65.355278], [-26.0, 66.75], [-22.971389, 66.75]]]]}},
{"type": "Feature", "properties": {"id": "BI-DOMESTIC-SOUTH-EAST", "minFL": 30, "maxFL": 244}, "geometry": {"type": "MultiPolygon", "coordinates": [[[[-22.966667, 64.633333], [-22.971389, 66.75], [-15.176667, 66.75], [-14.0, 66.0], [-11.882222, 63.823333], [-16.0, 63.0], [-18.553611, 63.0], [-21.231667, 63.723611], [-21.294167, 63.8675], [-20.928056, 64.292778], [-21.286389, 64.664167], [-22.148056, 64.701944], [-22.473056, 64.714444], [-22.870556, 64.785556], [-22.966667, 64.633333]]]]}},
{"type": "Feature", "properties": {"id": "BI-BIAR-APP", "minFL": 30, "maxFL": 69}, "geometry": {"type": "MultiPolygon", "coordinates": [[[[-17.785833, 65.837778], [-17.895833, 65.312222], [-17.899444, 65.299444], [-17.913889, 65.274167], [-17.938056, 65.25], [-17.970556, 65.227778], [-18.011389, 65.208056], [-18.058889, 65.191111], [-18.112222, 65.1775], [-18.170278, 65.1675], [-18.231111, 65.161389], [-18.293611, 65.159444], [-18.355833, 65.161389], [-18.416667, 65.1675], [-18.474722, 65.1775], [-18.528056, 65.191111], [-18.575556, 65.208056], [-18.616389, 65.227778], [-18.648889, 65.25], [-18.673056, 65.274167], [-18.6875, 65.299444], [-18.6925, 65.325556], [-18.691111, 65.338889], [-18.597222, 65.864167], [-18.593611, 65.876944], [-18.578611, 65.9025], [-18.554167, 65.926667], [-18.520833, 65.949167], [-18.479444, 65.969167], [-18.430833, 65.986111], [-18.376389, 65.999722], [-18.317222, 66.01], [-18.255278, 66.016111], [-18.191667, 66.018056], [-18.127778, 66.016111], [-18.065833, 66.01], [-18.006667, 65.999722], [-17.952222, 65.986111], [-17.903611, 65.969167], [-17.862222, 65.949167], [-17.828889, 65.926667], [-17.804444, 65.9025], [-17.789444, 65.876944], [-17.784444, 65.851111], [-17.785833, 65.837778]]]]}},
{"type": "Feature", "properties": {"id": "BI-BIKF-APP/1", "minFL": 10, "maxFL": 29}, "geometry": {"type": "MultiPolygon", "coordinates": [[[[-22.385278, 63.855], [-22.271389, 63.788889], [-22.355556, 63.763889], [-22.438333, 63.749167], [-22.525278, 63.74], [-22.614444, 63.736944], [-22.703333, 63.74], [-22.790278, 63.749167], [-22.873056, 63.763889], [-22.949167, 63.784167], [-23.017222, 63.809722], [-23.075278, 63.839167], [-23.121944, 63.8725], [-23.156111, 63.908611], [-23.176944, 63.946667], [-23.183889, 63.985556], [-23.176944, 64.024722], [-23.156111, 64.063056], [-23.121944, 64.099444], [-23.075278, 64.133056], [-23.017222, 64.162778], [-22.949167, 64.188611], [-22.873056, 64.209167], [-22.790278, 64.224167], [-22.703333, 64.233611], [-22.478056, 64.258611], [-22.495556, 64.171389], [-22.780833, 64.136389], [-22.831111, 64.123611], [-22.881944, 64.105278], [-22.924722, 64.083056], [-22.958056, 64.057778], [-22.980833, 64.030556], [-22.992778, 64.001944], [-22.993056, 63.973056], [-22.981667, 63.944444], [-22.959444, 63.916944], [-22.926389, 63.891667], [-22.884167, 63.869444], [-22.833611, 63.850556], [-22.776389, 63.836111], [-22.714167, 63.826111], [-22.648889, 63.820833], [-22.582778, 63.820833], [-22.5175, 63.825556], [-22.455, 63.835556], [-22.398889, 63.850833], [-22.385278, 63.855]]]]}},
{"type": "Feature", "properties": {"id": "BI-BIKF-APP/2", "minFL": 20, "maxFL": 29}, "geometry": {"type": "MultiPolygon", "coordinates": [[[[-22.271389, 63.788889], [-22.385278, 63.855], [-22.074722, 63.959444], [-21.967778, 63.994167], [-21.765556, 63.955833], [-22.271389, 63.788889]]]]}},
{"type": "Feature", "properties": {"id": "BI-BIKF-APP/3", "minFL": 30, "maxFL": 244}, "geometry": {"type": "MultiPolygon", "coordinates": [[[[-22.966667, 64.633333], [-22.733333, 64.516667], [-22.466667, 64.316667], [-22.478056, 64.258611], [-22.495556, 64.171389], [-22.5, 64.15], [-22.266667, 64.05], [-21.967778, 63.994167], [-21.765556, 63.955833], [-21.733333, 63.95], [-21.231667, 63.723611], [-21.260556, 63.678056], [-21.385278, 63.59], [-21.54, 63.511944], [-21.721111, 63.445], [-21.924444, 63.391667], [-22.144722, 63.3525], [-22.376667, 63.328611], [-22.614444, 63.320556], [-22.851944, 63.328611], [-23.083889, 63.3525], [-23.304167, 63.391667], [-23.5075, 63.445], [-23.688611, 63.511944], [-23.843333, 63.59], [-23.968056, 63.678056], [-24.059167, 63.773889], [-24.114722, 63.875], [-24.133611, 63.978889], [-24.114722, 64.083333], [-24.059167, 64.185556], [-23.968056, 64.282778], [-23.843333, 64.373056], [-23.688611, 64.453889], [-23.5075, 64.523056], [-23.304167, 64.578611], [-23.083889, 64.619722], [-22.966667, 64.633333]]]]}},
{"type": "Feature", "properties": {"id": "BI-BIRK-APP/1", "minFL": 10, "maxFL": 29}, "geometry": {"type": "MultiPolygon", "coordinates": [[[[-22.329167, 64.191667], [-22.495556, 64.171389], [-22.478056, 64.258611], [-21.998333, 64.310833], [-21.866944, 64.310833], [-21.838333, 64.308056], [-21.881389, 64.227222], [-21.913611, 64.229444], [-21.953611, 64.229444], [-21.992778, 64.226389], [-22.329167, 64.191667]]]]}},
{"type": "Feature", "properties": {"id": "BI-BIRK-APP/2", "minFL": 20, "maxFL": 29}, "geometry": {"type": "MultiPolygon", "coordinates": [[[[-21.967778, 63.994167], [-21.765556, 63.955833], [-21.682778, 63.983889], [-21.697778, 64.021667], [-21.689722, 64.023611], [-21.654722, 64.041389], [-21.626667, 64.061389], [-21.605833, 64.083056], [-21.593333, 64.106111], [-21.592222, 64.115], [-21.704722, 64.134167], [-21.704167, 64.121667], [-21.711111, 64.104444], [-21.724444, 64.088056], [-21.744444, 64.072778], [-21.77, 64.059444], [-21.800278, 64.048056], [-21.967778, 63.994167]]]]}},
{"type": "Feature", "properties": {"id": "BI-BIRK-APP/3", "minFL": 30, "maxFL": 244}, "geometry": {"type": "MultiPolygon", "coordinates": [[[[-22.966667, 64.633333], [-22.733333, 64.516667], [-22.466667, 64.316667], [-22.478056, 64.258611], [-22.495556, 64.171389], [-22.5, 64.15], [-22.266667, 64.05], [-21.967778, 63.994167], [-21.765556, 63.955833], [-21.733333, 63.95], [-21.231667, 63.723611], [-21.294167, 63.8675], [-20.928056, 64.292778], [-21.286389, 64.664167], [-22.148056, 64.701944], [-22.473056, 64.714444], [-22.870556, 64.785556], [-22.966667, 64.633333]]]]}}
]
}
