{
"type": "FeatureCollection",
"name": "CDM Airspace Data",
"crs": { "type": "name", "properties": { "name": "urn:ogc:def:crs:OGC:1.3:CRS84" } },
"features": [
{"type": "Feature", "properties": {"id": "BG-NORTH", "minFL": 0, "maxFL": 194}, "geometry": {"type": "MultiPolygon", "coordinates": [[[[-57.75, 65.0], [-58.391944, 65.704722], [-58.7575, 66.084722], [-59.943611, 67.240833], [-61.233611, 68.39], [-62.68, 69.523056], [-63.690833, 70.25], [-64.287222, 70.643889], [-66.158056, 71.809444], [-66.32, 71.866667], [-68.171389, 72.895556], [-70.456667, 73.957778], [-73.050278, 74.997778], [-76.0, 76.0], [-75.476389, 77.122778], [-75.0, 78.0], [-74.265278, 78.306111], [-72.723611, 78.896389], [-69.354167, 79.978333], [-65.207222, 81.015833], [-60.0, 82.0], [-59.994722, 82.548889], [-59.997222, 83.798056], [-59.989167, 85.041944], [-59.998333, 86.286111], [-60.013333, 87.528333], [-59.852222, 88.763056], [0.0, 90.0], [30.0, 88.0], [30.0, 85.0], [30.0, 83.0], [30.0, 82.0], [0.0, 82.0], [0.0, 73.0], [-20.0, 73.0], [-20.0, 70.0], [-30.0, 66.75], [-39.0, 63.5], [-39.995556, 64.225], [-43.828889, 65.181944], [-47.0, 66.0], [-54.0, 66.0], [-57.75, 65.0]]]]}},
{"type": "Feature", "properties": {"id": "BG-SOUTH", "minFL": 0, "maxFL": 194}, "geometry": {"type": "MultiPolygon", "coordinates": [[[[-57.75, 65.0], [-55.833333, 63.5], [-50.0, 58.5], [-43.0, 58.5], [-39.0, 63.5], [-39.995556, 64.225], [-43.828889, 65.181944], [-47.0, 66.0], [-54.0, 66.0], [-57.75, 65.0]]]]}},
{"type": "Feature", "properties": {"id": "BG-BGSF-APP/1", "minFL": 20, "maxFL": 34}, "geometry": {"type": "MultiPolygon", "coordinates": [[[[-51.716944, 66.916944], [-51.688889, 66.871111], [-51.624722, 66.811111], [-51.5375, 66.755833], [-51.464167, 66.724444], [-51.006667, 66.898333], [-51.02, 66.904722], [-51.055, 66.926944], [-51.080556, 66.950833], [-51.096111, 66.976389], [-51.096944, 66.978056], [-51.716944, 66.916944]]]]}},
{"type": "Feature", "properties": {"id": "BG-BGSF-APP/2", "minFL": 35, "maxFL": 64}, "geometry": {"type": "MultiPolygon", "coordinates": [[[[-51.464167, 66.724444], [-51.5375, 66.755833], [-51.624722, 66.811111], [-51.688889, 66.871111], [-51.716944, 66.916944], [-51.727778, 66.934444], [-51.741111, 66.999444], [-51.727778, 67.064444], [-51.688889, 67.128333], [-51.624722, 67.189167], [-51.5375, 67.245278], [-51.428889, 67.295556], [-51.301667, 67.338611], [-51.159167, 67.373056], [-51.004444, 67.398611], [-50.841944, 67.414167], [-50.675278, 67.419167], [-50.508333, 67.414167], [-50.345833, 67.398611], [-50.191111, 67.373056], [-50.048611, 67.338611], [-49.921389, 67.295556], [-49.812778, 67.245278], [-49.725556, 67.189167], [-49.661389, 67.128333], [-49.6225, 67.064444], [-49.609167, 66.999444], [-49.6225, 66.934444], [-49.661389, 66.871111], [-49.725556, 66.811111], [-49.812778, 66.755833], [-49.921389, 66.706667], [-50.048611, 66.664722], [-50.191111, 66.631111], [-50.345833, 66.606667], [-50.508333, 66.591667], [-50.675278, 66.586667], [-50.841944, 66.591667], [-51.004444, 66.606667], [-51.159167, 66.631111], [-51.301667, 66.664722], [-51.428889, 66.706667], [-51.464167, 66.724444]]]]}},
{"type": "Feature", "properties": {"id": "BG-BGSF-APP/3", "minFL": 65, "maxFL": 194}, "geometry": {"type": "MultiPolygon", "coordinates": [[[[-50.675278, 68.501944], [-50.073611, 68.482222], [-49.487222, 68.423889], [-48.93, 68.328333], [-48.416389, 68.198889], [-47.958333, 68.038611], [-47.5675, 67.8525], [-47.253333, 67.645556], [-47.023333, 67.423611], [-46.883056, 67.191944], [-46.835833, 66.956667], [-46.883056, 66.723889], [-47.023333, 66.498889], [-47.253333, 66.286667], [-47.5675, 66.092778], [-47.958333, 65.920833], [-48.416389, 65.775], [-48.93, 65.658333], [-49.487222, 65.573056], [-50.073611, 65.521389], [-50.675278, 65.503889], [-51.276667, 65.521389], [-51.863056, 65.573056], [-52.420278, 65.658333], [-52.933889, 65.775], [-53.391944, 65.920833], [-53.782778, 66.092778], [-54.096944, 66.286667], [-54.326944, 66.498889], [-54.467222, 66.723889], [-54.514444, 66.956667], [-54.467222, 67.191944], [-54.326944, 67.423611], [-54.096944, 67.645556], [-53.782778, 67.8525], [-53.391944, 68.038611], [-52.933889, 68.198889], [-52.420278, 68.328333], [-51.863056, 68.423889], [-51.276667, 68.482222], [-50.675278, 68.501944]]]]}},
{"type": "Feature", "properties": {"id": "BG-BGTL-APP/1", "minFL": 0, "maxFL": 27}, "geometry": {"type": "MultiPolygon", "coordinates": [[[[-68.255, 77.188611], [-67.818056, 77.163056], [-67.403056, 77.121111], [-67.02, 77.064167], [-66.678611, 76.993611], [-66.387222, 76.911667], [-66.153056, 76.820278], [-65.981389, 76.721944], [-65.876667, 76.619167], [-65.841389, 76.514722], [-65.876667, 76.411111], [-65.981389, 76.310833], [-66.153056, 76.215833], [-66.387222, 76.129167], [-66.678611, 76.051944], [-67.02, 75.986667], [-67.403056, 75.934167], [-67.818056, 75.895833], [-68.255, 75.8725], [-68.703056, 75.864722], [-69.150833, 75.8725], [-69.587778, 75.895833], [-70.002778, 75.934167], [-70.385833, 75.986667], [-70.727222, 76.051944], [-71.018611, 76.129167], [-71.252778, 76.215833], [-71.424444, 76.310833], [-71.529167, 76.411111], [-71.564444, 76.514722], [-71.529167, 76.619167], [-71.424444, 76.721944], [-71.252778, 76.820278], [-71.018611, 76.911667], [-70.727222, 76.993611], [-70.385833, 77.064167], [-70.002778, 77.121111], [-69.587778, 77.163056], [-69.150833, 77.188611], [-68.703056, 77.197222], [-68.255, 77.188611]]]]}},
{"type": "Feature", "properties": {"id": "BG-BGTL-APP/2", "minFL": 28, "maxFL": 69}, "geometry": {"type": "MultiPolygon", "coordinates": [[[[-68.255, 77.188611], [-67.818056, 77.163056], [-67.403056, 77.121111], [-67.02, 77.064167], [-66.678611, 76.993611], [-66.387222, 76.911667], [-66.153056, 76.820278], [-65.981389, 76.721944], [-65.876667, 76.619167], [-65.841389, 76.514722], [-65.876667, 76.411111], [-65.981389, 76.310833], [-66.153056, 76.215833], [-66.387222, 76.129167], [-66.678611, 76.051944], [-67.02, 75.986667], [-67.403056, 75.934167], [-67.818056, 75.895833], [-68.255, 75.8725], [-68.703056, 75.864722], [-69.150833, 75.8725], [-69.587778, 75.895833], [-70.002778, 75.934167], [-70.385833, 75.986667], [-70.727222, 76.051944], [-71.018611, 76.129167], [-71.252778, 76.215833], [-71.424444, 76.310833], [-71.529167, 76.411111], [-71.564444, 76.514722], [-71.529167, 76.619167], [-71.424444, 76.721944], [-71.252778, 76.820278], [-71.018611, 76.911667], [-70.727222, 76.993611], [-70.385833, 77.064167], [-70.002778, 77.121111], [-69.587778, 77.163056], [-69.150833, 77.188611], [-68.703056, 77.197222], [-68.255, 77.188611]]]]}},
{"type": "Feature", "properties": {"id": "BG-BGTL-APP/3", "minFL": 70, "maxFL": 194}, "geometry": {"type": "MultiPolygon", "coordinates": [[[[-68.703056, 78.03], [-67.69, 78.009167], [-66.7025, 77.947778], [-65.765556, 77.847778], [-64.902222, 77.7125], [-64.133611, 77.546667], [-63.478333, 77.354722], [-62.952222, 77.143333], [-62.5675, 76.917778], [-62.333056, 76.684444], [-62.254444, 76.449444], [-62.333056, 76.218333], [-62.5675, 75.996389], [-62.952222, 75.788611], [-63.478333, 75.599722], [-64.133611, 75.433056], [-64.902222, 75.292222], [-65.765556, 75.18], [-66.7025, 75.098333], [-67.69, 75.048611], [-68.703056, 75.031944], [-69.715833, 75.048611], [-70.703333, 75.098333], [-71.640278, 75.18], [-72.503611, 75.292222], [-73.272222, 75.433056], [-73.9275, 75.599722], [-74.453611, 75.788611], [-74.838333, 75.996389], [-75.072778, 76.218333], [-75.151389, 76.449444], [-75.072778, 76.684444], [-74.838333, 76.917778], [-74.453611, 77.143333], [-73.9275, 77.354722], [-73.272222, 77.546667], [-72.503611, 77.7125], [-71.640278, 77.847778], [-70.703333, 77.947778], [-69.715833, 78.009167], [-68.703056, 78.03]]]]}}
]
}
